NORAD_CAT_ID,OBJECT_NAME,OBJECT_TYPE,EPOCH,MEAN_MOTION,ECCENTRICITY,INCLINATION,RA_OF_ASC_NODE,ARG_OF_PERICENTER,MEAN_ANOMALY,BSTAR,MEAN_MOTION_DOT,MEAN_MOTION_DDOT,TLE_LINE0,TLE_LINE1,TLE_LINE2,SEMIMAJOR_AXIS,PERIOD,APOGEE,PERIGEE,DECAYED
53413.0,STARLINK-4500,PAYLOAD,2023-09-30 09:06:32,15.08852355,0.0001235,53.2154,155.3712,99.0946,261.0186,0.00020889,3.039e-05,0.0,0 STARLINK-4500,1 53413U 22097AB  23273.37954110  .00003039  00000-0  20889-3 0  9998,2 53413  53.2154 155.3712 0001235  99.0946 261.0186 15.08852355 63601,6917.843,95.437,540.562,538.853,0.0
53413.0,STARLINK-4500,PAYLOAD,2023-09-30 15:28:05,15.08839724,0.0002259,53.2168,154.1791,92.1168,268.0083,-0.00011121,-2.058e-05,0.0,0 STARLINK-4500,1 53413U 22097AB  23273.64450508 -.00002058  00000-0 -11121-3 0  9991,2 53413  53.2168 154.1791 0002259  92.1168 268.0083 15.08839724 63649,6917.881,95.438,541.309,538.183,0.0
53413.0,STARLINK-4500,PAYLOAD,2023-10-01 08:57:19,15.08846172,0.000148,53.2148,150.9079,82.7378,277.3782,0.00046656,7.146e-05,0.0,0 STARLINK-4500,1 53413U 22097AB  23274.37314700  .00007146  00000-0  46656-3 0  9997,2 53413  53.2148 150.9079 0001480  82.7378 277.3782 15.08846172 64244,6917.862,95.437,540.75,538.703,0.0
53413.0,STARLINK-4500,PAYLOAD,2023-10-01 21:40:24,15.08854175,0.0001463,53.2145,148.5289,81.8112,278.3046,0.00079357,0.00012369,0.0,0 STARLINK-4500,1 53413U 22097AB  23274.90306644  .00012369  00000-0  79357-3 0  9991,2 53413  53.2145 148.5289 0001463  81.8112 278.3046 15.08854175 64329,6917.837,95.437,540.714,538.69,0.0
53413.0,STARLINK-4500,PAYLOAD,2023-10-02 00:51:11,15.08860889,0.0001454,53.2145,147.934,81.2293,278.8864,0.00091684,0.00014342,0.0,0 STARLINK-4500,1 53413U 22097AB  23275.03554431  .00014342  00000-0  91684-3 0  9995,2 53413  53.2145 147.9340 0001454  81.2293 278.8864 15.08860889 63853,6917.817,95.436,540.687,538.676,0.0
53413.0,STARLINK-4500,PAYLOAD,2023-10-02 08:48:06,15.08850365,0.0001223,53.215,146.446,102.2295,257.8834,0.00048749,7.481e-05,0.0,0 STARLINK-4500,1 53413U 22097AB  23275.36674389  .00007481  00000-0  48749-3 0  9996,2 53413  53.2150 146.4460 0001223 102.2295 257.8834 15.08850365 63904,6917.849,95.437,540.56,538.868,0.0
53413.0,STARLINK-4500,PAYLOAD,2023-10-02 21:31:12,15.08840043,0.0001298,53.2136,144.0695,95.8253,264.2887,0.00013202,1.814e-05,0.0,0 STARLINK-4500,1 53413U 22097AB  23275.89666699  .00001814  00000-0  13202-3 0  9999,2 53413  53.2136 144.0695 0001298  95.8253 264.2887 15.08840043 63985,6917.88,95.438,540.643,538.847,0.0
53413.0,STARLINK-4500,PAYLOAD,2023-10-03 08:38:54,15.08830612,0.0001425,53.2143,141.9843,102.0218,258.0934,0.00012059,1.631e-05,0.0,0 STARLINK-4500,1 53413U 22097AB  23276.36035050  .00001631  00000-0  12059-3 0  9999,2 53413  53.2143 141.9843 0001425 102.0218 258.0934 15.08830612 64052,6917.909,95.438,540.76,538.788,0.0
53413.0,STARLINK-4500,PAYLOAD,2023-10-03 21:21:59,15.08840098,0.00015,53.2155,139.6067,90.9381,269.1783,0.00019455,2.81e-05,0.0,0 STARLINK-4500,1 53413U 22097AB  23276.89027140  .00002810  00000-0  19455-3 0  9995,2 53413  53.2155 139.6067 0001500  90.9381 269.1783 15.08840098 64624,6917.88,95.438,540.783,538.707,0.0
53413.0,STARLINK-4500,PAYLOAD,2023-10-03 22:57:22,15.08841801,0.0001496,53.2154,139.3086,94.7542,265.3621,0.00025555,3.782e-05,0.0,0 STARLINK-4500,1 53413U 22097AB  23276.95651095  .00003782  00000-0  25555-3 0  9991,2 53413  53.2154 139.3086 0001496  94.7542 265.3621 15.08841801 64145,6917.875,95.437,540.775,538.705,0.0
53413.0,STARLINK-4500,PAYLOAD,2023-10-04 21:12:45,15.08861292,0.0001524,53.216,135.144,98.4084,261.7081,0.00066566,0.00010328,0.0,0 STARLINK-4500,1 53413U 22097AB  23277.88386421  .00010328  00000-0  66566-3 0  9993,2 53413  53.2160 135.1440 0001524  98.4084 261.7081 15.08861292 64779,6917.815,95.436,540.735,538.626,0.0
53413.0,STARLINK-4500,PAYLOAD,2023-10-05 00:23:31,15.0886524,0.0001523,53.216,134.5494,98.0118,262.1047,0.00070745,0.00010997,0.0,0 STARLINK-4500,1 53413U 22097AB  23278.01634199  .00010997  00000-0  70745-3 0  9993,2 53413  53.2160 134.5494 0001523  98.0118 262.1047 15.08865240 64307,6917.803,95.436,540.722,538.615,0.0
53413.0,STARLINK-4500,PAYLOAD,2023-10-05 21:03:33,15.08844285,0.0001413,53.2157,130.6834,75.7471,284.3678,0.00025114,3.712e-05,0.0,0 STARLINK-4500,1 53413U 22097AB  23278.87746529  .00003712  00000-0  25114-3 0  9995,2 53413  53.2157 130.6834 0001413  75.7471 284.3678 15.08844285 64436,6917.867,95.437,540.71,538.755,0.0
53413.0,STARLINK-4500,PAYLOAD,2023-10-05 22:38:56,15.08847056,0.0001408,53.2158,130.3865,78.2225,281.8925,0.00020659,3.002e-05,0.0,0 STARLINK-4500,1 53413U 22097AB  23278.94370500  .00003002  00000-0  20659-3 0  9996,2 53413  53.2158 130.3865 0001408  78.2225 281.8925 15.08847056 64938,6917.859,95.437,540.698,538.75,0.0
53413.0,STARLINK-4500,PAYLOAD,2023-10-06 20:54:20,15.08840723,0.0001435,53.2164,126.225,80.7502,279.3652,7.083e-05,8.4e-06,0.0,0 STARLINK-4500,1 53413U 22097AB  23279.87107005  .00000840  00000-0  70830-4 0  9991,2 53413  53.2164 126.2250 0001435  80.7502 279.3652 15.08840723 64587,6917.878,95.438,540.736,538.75,0.0
53413.0,STARLINK-4500,PAYLOAD,2023-10-07 06:26:39,15.08837671,0.0001466,53.2164,124.4406,78.3639,281.7518,8.9613e-05,1.138e-05,0.0,0 STARLINK-4500,1 53413U 22097AB  23280.26851262  .00001138  00000-0  89613-4 0  9997,2 53413  53.2164 124.4406 0001466  78.3639 281.7518 15.08837671 65136,6917.888,95.438,540.767,538.738,0.0
53413.0,STARLINK-4500,PAYLOAD,2023-10-07 19:09:44,15.08841603,0.0001442,53.2163,122.0617,76.6636,283.4517,0.00021778,3.18e-05,0.0,0 STARLINK-4500,1 53413U 22097AB  23280.79843335  .00003180  00000-0  21778-3 0  9993,2 53413  53.2163 122.0617 0001442  76.6636 283.4517 15.08841603 65212,6917.875,95.437,540.738,538.743,0.0
53413.0,STARLINK-4500,PAYLOAD,2023-10-07 22:20:30,15.0884719,0.0001386,53.2159,121.4673,79.6179,280.497,0.00032441,4.88e-05,0.0,0 STARLINK-4500,1 53413U 22097AB  23280.93091122  .00004880  00000-0  32441-3 0  9995,2 53413  53.2159 121.4673 0001386  79.6179 280.4970 15.08847190 64748,6917.858,95.437,540.682,538.765,0.0
53413.0,STARLINK-4500,PAYLOAD,2023-10-08 06:17:26,15.08847423,0.0001364,53.2157,119.9804,80.6658,279.4489,0.00030882,4.631e-05,0.0,0 STARLINK-4500,1 53413U 22097AB  23281.26211072  .00004631  00000-0  30882-3 0  9991,2 53413  53.2157 119.9804 0001364  80.6658 279.4489 15.08847423 65286,6917.858,95.437,540.666,538.779,0.0
53413.0,STARLINK-4500,PAYLOAD,2023-10-08 19:00:31,15.08837937,0.0001605,53.2164,117.6012,80.0942,280.0231,1.3295e-05,-7.6e-07,0.0,0 STARLINK-4500,1 53413U 22097AB  23281.79203417 -.00000076  00000-0  13295-4 0  9993,2 53413  53.2164 117.6012 0001605  80.0942 280.0231 15.08837937 64874,6917.887,95.438,540.862,538.641,0.0
53413.0,STARLINK-4500,PAYLOAD,2023-10-08 20:35:54,15.08839914,0.000161,53.2167,117.3039,79.0954,281.0219,6.1976e-05,6.98e-06,0.0,0 STARLINK-4500,1 53413U 22097AB  23281.85827346  .00000698  00000-0  61976-4 0  9991,2 53413  53.2167 117.3039 0001610  79.0954 281.0219 15.08839914 65370,6917.881,95.438,540.859,538.632,0.0
53413.0,STARLINK-4500,PAYLOAD,2023-10-09 06:08:13,15.08837809,0.0001576,53.2162,115.5191,83.9789,276.1383,2.7527e-05,1.5e-06,0.0,0 STARLINK-4500,1 53413U 22097AB  23282.25571498  .00000150  00000-0  27527-4 0  9997,2 53413  53.2162 115.5191 0001576  83.9789 276.1383 15.08837809 65430,6917.887,95.438,540.842,538.662,0.0
53413.0,STARLINK-4500,PAYLOAD,2023-10-09 20:26:41,15.08847217,0.0001466,53.2172,112.8415,89.1906,270.9254,6.5499e-05,7.55e-06,0.0,0 STARLINK-4500,1 53413U 22097AB  23282.85187254  .00000755  00000-0  65499-4 0  9997,2 53413  53.2172 112.8415 0001466  89.1906 270.9254 15.08847217 65036,6917.858,95.437,540.737,538.709,0.0
53413.0,STARLINK-4500,PAYLOAD,2023-10-10 12:20:33,15.08840204,0.0001496,53.2164,109.8706,84.045,276.0712,0.00012467,1.697e-05,0.0,0 STARLINK-4500,1 53413U 22097AB  23283.51427511  .00001697  00000-0  12467-3 0  9996,2 53413  53.2164 109.8706 0001496  84.0450 276.0712 15.08840204 65133,6917.88,95.438,540.78,538.71,0.0
53413.0,STARLINK-4500,PAYLOAD,2023-10-10 20:17:28,15.0884672,0.0001488,53.2158,108.3841,84.5011,275.615,0.00014813,2.071e-05,0.0,0 STARLINK-4500,1 53413U 22097AB  23283.84547129  .00002071  00000-0  14813-3 0  9994,2 53413  53.2158 108.3841 0001488  84.5011 275.6150 15.08846720 65678,6917.86,95.437,540.754,538.695,0.0
53413.0,STARLINK-4500,PAYLOAD,2023-10-11 12:11:20,15.08839085,0.0001575,53.2168,105.4107,88.0673,272.0499,7.8546e-05,9.62e-06,0.0,0 STARLINK-4500,1 53413U 22097AB  23284.50787719  .00000962  00000-0  78546-4 0  9990,2 53413  53.2168 105.4107 0001575  88.0673 272.0499 15.08839085 65776,6917.883,95.438,540.838,538.659,0.0
53413.0,STARLINK-4500,PAYLOAD,2023-10-11 18:32:52,15.08844648,0.0001447,53.2173,104.2207,93.5223,266.5935,2.6541e-05,1.35e-06,0.0,0 STARLINK-4500,1 53413U 22097AB  23284.77283430  .00000135  00000-0  26541-4 0  9990,2 53413  53.2173 104.2207 0001447  93.5223 266.5935 15.08844648 65325,6917.866,95.437,540.732,538.73,0.0
53413.0,STARLINK-4500,PAYLOAD,2023-10-12 12:02:07,15.08841147,0.0001343,53.2165,100.9489,89.0512,271.0634,0.00011293,1.51e-05,0.0,0 STARLINK-4500,1 53413U 22097AB  23285.50147382  .00001510  00000-0  11293-3 0  9992,2 53413  53.2165 100.9489 0001343  89.0512 271.0634 15.08841147 65921,6917.877,95.437,540.671,538.813,0.0
53413.0,STARLINK-4500,PAYLOAD,2023-10-12 19:59:02,15.08851635,0.0001462,53.2175,99.4617,86.0397,274.0763,7.7975e-05,9.54e-06,0.0,0 STARLINK-4500,1 53413U 22097AB  23285.83266803  .00000954  00000-0  77975-4 0  9999,2 53413  53.2175  99.4617 0001462  86.0397 274.0763 15.08851635 65971,6917.845,95.437,540.721,538.698,0.0
53413.0,STARLINK-4500,PAYLOAD,2023-10-13 18:14:25,15.08848481,0.0001497,53.2176,95.2992,96.9576,263.1586,0.00014734,2.058e-05,0.0,0 STARLINK-4500,1 53413U 22097AB  23286.76002273  .00002058  00000-0  14734-3 0  9991,2 53413  53.2176  95.2992 0001497  96.9576 263.1586 15.08848481 66113,6917.854,95.437,540.755,538.684,0.0
